[{"OBJECT_NAME":"BLUEBON","OBJECT_ID":"2025-009CH","EPOCH":"2026-03-09T16:52:33.225312","MEAN_MOTION":15.29047254,"ECCENTRICITY":0.00011933,"INCLINATION":97.4017,"RA_OF_ASC_NODE":152.2033,"ARG_OF_PERICENTER":43.39,"MEAN_ANOMALY":316.7434,"EPHEMERIS_TYPE":0,"CLASSIFICATION_TYPE":"U","NORAD_CAT_ID":62688,"ELEMENT_SET_NO":999,"REV_AT_EPOCH":6376,"BSTAR":0.00037313027,"MEAN_MOTION_DOT":0.00010452,"MEAN_MOTION_DDOT":0},{"OBJECT_NAME":"STARLINK-36104","OBJECT_ID":"2025-288F","EPOCH":"2026-03-09T07:06:53.775936","MEAN_MOTION":15.27586411,"ECCENTRICITY":0.00014997,"INCLINATION":43.0015,"RA_OF_ASC_NODE":25.9869,"ARG_OF_PERICENTER":276.8839,"MEAN_ANOMALY":83.1842,"EPHEMERIS_TYPE":0,"CLASSIFICATION_TYPE":"U","NORAD_CAT_ID":66964,"ELEMENT_SET_NO":999,"REV_AT_EPOCH":1522,"BSTAR":0.0012970287,"MEAN_MOTION_DOT":0.00035609,"MEAN_MOTION_DDOT":0}]
